{
  "norad_id": 60319,
  "name": "STARLINK-32182",
  "history": [
    {
      "epoch": "2026-03-28T17:14:02.208768Z",
      "apogee_km": 476.3764377179623,
      "perigee_km": 474.06918560376835,
      "latitude_deg": 2.0114837432468606e-05,
      "longitude_deg": 124.03300288148043,
      "height_km": 476.5666841357025,
      "semi_major_axis_km": 6853.3598116608655,
      "eccentricity": 0.00016833,
      "inclination_deg": 53.1616,
      "raan_deg": 208.6767,
      "arg_perigee_deg": 112.7452,
      "mean_anomaly_deg": 247.3727,
      "mean_motion_rev_day": 15.30197407
    },
    {
      "epoch": "2026-03-29T01:04:19.080192Z",
      "apogee_km": 476.37620774093193,
      "perigee_km": 474.18996673310266,
      "latitude_deg": -3.0492317212040996e-05,
      "longitude_deg": 4.6246714556900175,
      "height_km": 476.5583675140212,
      "semi_major_axis_km": 6853.420087237017,
      "eccentricity": 0.0001595,
      "inclination_deg": 53.1621,
      "raan_deg": 207.1606,
      "arg_perigee_deg": 110.1918,
      "mean_anomaly_deg": 249.9254,
      "mean_motion_rev_day": 15.3017722
    },
    {
      "epoch": "2026-03-30T00:35:08.579904Z",
      "apogee_km": 476.4853673128191,
      "perigee_km": 474.43682684160194,
      "latitude_deg": -1.6595403478030144e-05,
      "longitude_deg": 6.402258126697478,
      "height_km": 476.5070202037449,
      "semi_major_axis_km": 6853.59809707721,
      "eccentricity": 0.00014945,
      "inclination_deg": 53.1617,
      "raan_deg": 202.6101,
      "arg_perigee_deg": 98.3072,
      "mean_anomaly_deg": 261.8098,
      "mean_motion_rev_day": 15.30117605
    },
    {
      "epoch": "2026-03-30T13:07:32.739744Z",
      "apogee_km": 476.04721482754667,
      "perigee_km": 474.44297514675236,
      "latitude_deg": 6.124305909786192e-05,
      "longitude_deg": 175.3593493968241,
      "height_km": 476.26866346336305,
      "semi_major_axis_km": 6853.38209498715,
      "eccentricity": 0.00011704,
      "inclination_deg": 53.1613,
      "raan_deg": 200.1828,
      "arg_perigee_deg": 98.9808,
      "mean_anomaly_deg": 261.1326,
      "mean_motion_rev_day": 15.30189944
    },
    {
      "epoch": "2026-03-30T17:49:42.179520Z",
      "apogee_km": 476.0507621666493,
      "perigee_km": 474.43802445717574,
      "latitude_deg": -3.5061142930389084e-05,
      "longitude_deg": 103.71621564617817,
      "height_km": 476.24779265405255,
      "semi_major_axis_km": 6853.381393311913,
      "eccentricity": 0.00011766,
      "inclination_deg": 53.161,
      "raan_deg": 199.2722,
      "arg_perigee_deg": 97.4874,
      "mean_anomaly_deg": 262.626,
      "mean_motion_rev_day": 15.30190179
    },
    {
      "epoch": "2026-03-31T12:38:20.462208Z",
      "apogee_km": 475.9873483748597,
      "perigee_km": 474.5022205421674,
      "latitude_deg": 9.560595314842291e-06,
      "longitude_deg": 177.14431343550993,
      "height_km": 476.23843643033007,
      "semi_major_axis_km": 6853.381784458513,
      "eccentricity": 0.00010835,
      "inclination_deg": 53.1605,
      "raan_deg": 195.6323,
      "arg_perigee_deg": 97.3709,
      "mean_anomaly_deg": 262.7415,
      "mean_motion_rev_day": 15.30190048
    },
    {
      "epoch": "2026-04-01T13:43:11.240832Z",
      "apogee_km": 475.90395810938116,
      "perigee_km": 474.5332869848726,
      "latitude_deg": 1.4405609665772387e-05,
      "longitude_deg": 155.04971011611323,
      "height_km": 476.05523046454886,
      "semi_major_axis_km": 6853.355622547127,
      "eccentricity": 0.0001,
      "inclination_deg": 53.1594,
      "raan_deg": 190.7793,
      "arg_perigee_deg": 84.8287,
      "mean_anomaly_deg": 275.2828,
      "mean_motion_rev_day": 15.3019881
    },
    {
      "epoch": "2026-04-02T16:22:05.401344Z",
      "apogee_km": 476.0813122003592,
      "perigee_km": 474.3570077905051,
      "latitude_deg": 1.9851299603986402e-05,
      "longitude_deg": 109.07063638456322,
      "height_km": 475.850997506422,
      "semi_major_axis_km": 6853.356159995432,
      "eccentricity": 0.0001258,
      "inclination_deg": 53.1598,
      "raan_deg": 185.6203,
      "arg_perigee_deg": 72.0071,
      "mean_anomaly_deg": 288.1067,
      "mean_motion_rev_day": 15.3019863
    },
    {
      "epoch": "2026-04-02T22:38:17.594016Z",
      "apogee_km": 476.08131722835515,
      "perigee_km": 474.31493863248306,
      "latitude_deg": 5.329369295191524e-05,
      "longitude_deg": 13.549656734003891,
      "height_km": 475.8918159220025,
      "semi_major_axis_km": 6853.335127930419,
      "eccentricity": 0.00012887,
      "inclination_deg": 53.1605,
      "raan_deg": 184.4076,
      "arg_perigee_deg": 76.6144,
      "mean_anomaly_deg": 283.5001,
      "mean_motion_rev_day": 15.30205674
    },
    {
      "epoch": "2026-04-03T15:52:56.319744Z",
      "apogee_km": 476.1976941833782,
      "perigee_km": 474.4582847690499,
      "latitude_deg": -2.355334566980132e-05,
      "longitude_deg": 110.84295263871115,
      "height_km": 476.02920807615163,
      "semi_major_axis_km": 6853.464989476214,
      "eccentricity": 0.0001269,
      "inclination_deg": 53.1599,
      "raan_deg": 181.0705,
      "arg_perigee_deg": 76.9159,
      "mean_anomaly_deg": 283.1983,
      "mean_motion_rev_day": 15.30162182
    },
    {
      "epoch": "2026-04-04T15:23:41.310240Z",
      "apogee_km": 476.03065070197226,
      "perigee_km": 474.25565114288383,
      "latitude_deg": 2.499067507928194e-05,
      "longitude_deg": 112.63830381767278,
      "height_km": 475.701106945055,
      "semi_major_axis_km": 6853.280150922428,
      "eccentricity": 0.0001295,
      "inclination_deg": 53.1581,
      "raan_deg": 176.5189,
      "arg_perigee_deg": 67.4723,
      "mean_anomaly_deg": 292.6415,
      "mean_motion_rev_day": 15.30224087
    },
    {
      "epoch": "2026-04-05T11:46:23.849184Z",
      "apogee_km": 476.0307136928768,
      "perigee_km": 474.4049608583782,
      "latitude_deg": -1.6560435739997582e-05,
      "longitude_deg": 162.1801114787811,
      "height_km": 476.0543591861721,
      "semi_major_axis_km": 6853.354837275628,
      "eccentricity": 0.00011861,
      "inclination_deg": 53.158,
      "raan_deg": 172.5749,
      "arg_perigee_deg": 85.6638,
      "mean_anomaly_deg": 274.4498,
      "mean_motion_rev_day": 15.30199073
    },
    {
      "epoch": "2026-04-05T14:54:30.498912Z",
      "apogee_km": 476.2018879774296,
      "perigee_km": 474.2377159179923,
      "latitude_deg": -1.7314572656269173e-05,
      "longitude_deg": 114.4186461957844,
      "height_km": 475.80379667473466,
      "semi_major_axis_km": 6853.356801947711,
      "eccentricity": 0.0001433,
      "inclination_deg": 53.158,
      "raan_deg": 171.9699,
      "arg_perigee_deg": 71.3688,
      "mean_anomaly_deg": 288.7468,
      "mean_motion_rev_day": 15.30198415
    },
    {
      "epoch": "2026-04-07T10:47:59.376192Z",
      "apogee_km": 476.53411925945875,
      "perigee_km": 473.9839705911427,
      "latitude_deg": -2.4278143418430025e-06,
      "longitude_deg": 165.7490769179871,
      "height_km": 476.04370605063485,
      "semi_major_axis_km": 6853.396044925301,
      "eccentricity": 0.00018605,
      "inclination_deg": 53.1584,
      "raan_deg": 163.4732,
      "arg_perigee_deg": 84.942,
      "mean_anomaly_deg": 275.1793,
      "mean_motion_rev_day": 15.30185272
    },
    {
      "epoch": "2026-04-08T13:26:54.145824Z",
      "apogee_km": 476.1459728195614,
      "perigee_km": 474.23553917429945,
      "latitude_deg": -3.180208223408465e-05,
      "longitude_deg": 119.76922794777437,
      "height_km": 475.7908881957556,
      "semi_major_axis_km": 6853.32775599693,
      "eccentricity": 0.00013938,
      "inclination_deg": 53.1595,
      "raan_deg": 158.316,
      "arg_perigee_deg": 71.8328,
      "mean_anomaly_deg": 288.2824,
      "mean_motion_rev_day": 15.30208143
    },
    {
      "epoch": "2026-04-09T20:47:57.598368Z",
      "apogee_km": 476.16507799147894,
      "perigee_km": 474.2758814686167,
      "latitude_deg": 5.144251734774858e-05,
      "longitude_deg": 2.1487623542047714,
      "height_km": 475.9279724394405,
      "semi_major_axis_km": 6853.357479730048,
      "eccentricity": 0.00013783,
      "inclination_deg": 53.1594,
      "raan_deg": 152.2474,
      "arg_perigee_deg": 78.3712,
      "mean_anomaly_deg": 281.7444,
      "mean_motion_rev_day": 15.30198188
    },
    {
      "epoch": "2026-04-11T19:49:33.765600Z",
      "apogee_km": 476.1562977295571,
      "perigee_km": 474.34563262915617,
      "latitude_deg": 1.6002764842724003e-05,
      "longitude_deg": 5.716516608704162,
      "height_km": 475.9626839655131,
      "semi_major_axis_km": 6853.387965179356,
      "eccentricity": 0.0001321,
      "inclination_deg": 53.16,
      "raan_deg": 143.1472,
      "arg_perigee_deg": 78.1234,
      "mean_anomaly_deg": 281.9915,
      "mean_motion_rev_day": 15.30187978
    },
    {
      "epoch": "2026-04-12T02:05:46.565664Z",
      "apogee_km": 476.09958363081023,
      "perigee_km": 474.4043293385348,
      "latitude_deg": 6.620603223525605e-05,
      "longitude_deg": -89.80838877914526,
      "height_km": 476.0006941261323,
      "semi_major_axis_km": 6853.388956484672,
      "eccentricity": 0.00012368,
      "inclination_deg": 53.1594,
      "raan_deg": 141.9331,
      "arg_perigee_deg": 79.8528,
      "mean_anomaly_deg": 280.2613,
      "mean_motion_rev_day": 15.30187646
    },
    {
      "epoch": "2026-04-14T10:31:41.346336Z",
      "apogee_km": 476.04519758159313,
      "perigee_km": 474.4202636184664,
      "latitude_deg": -6.3671896010902264e-06,
      "longitude_deg": 130.47463003050953,
      "height_km": 475.9777674859185,
      "semi_major_axis_km": 6853.3697306000295,
      "eccentricity": 0.00011855,
      "inclination_deg": 53.1589,
      "raan_deg": 131.012,
      "arg_perigee_deg": 79.1408,
      "mean_anomaly_deg": 280.9726,
      "mean_motion_rev_day": 15.30194085
    }
  ]
}